{
  "type": "FeatureCollection",
  "features": [
    {
      "type": "Feature",
      "properties": {
        "norad_id": 29887,
        "name": "FENGYUN 1C DEB",
        "group": "fengyun-1c-debris",
        "lat": -19.42802822953402,
        "lon": -120.38026738403488,
        "alt_km": 989.8368818422323,
        "timestamp": "2025-12-07T03:52:32.768979+00:00",
        "meta_object_name": "FENGYUN 1C DEB",
        "meta_object_id": "1999-025GH",
        "meta_epoch": "2025-12-06T11:56:27.240000",
        "meta_mean_motion": 14.33668217,
        "meta_eccentricity": 0.02874651,
        "meta_inclination": 98.7189,
        "meta_ra_of_asc_node": 62.0525,
        "meta_arg_of_pericenter": 17.5701,
        "meta_mean_anomaly": 357.3667,
        "meta_ephemeris_type": 0,
        "meta_classification_type": "U",
        "meta_norad_cat_id": 29887,
        "meta_element_set_no": 999,
        "meta_rev_at_epoch": 97885,
        "meta_bstar": 0.00095818632,
        "meta_mean_motion_dot": 4.173e-05,
        "meta_mean_motion_ddot": 0,
        "tle_line1": "1 29887U 99025GH  25340.49753750  .00004173  00000+0  95819-3 0  9992",
        "tle_line2": "2 29887  98.7189  62.0525 0287465  17.5701 357.3667 14.33668217978856"
      },
      "geometry": {
        "type": "Point",
        "coordinates": [
          -120.38026738403488,
          -19.42802822953402
        ]
      }
    },
    {
      "type": "Feature",
      "properties": {
        "norad_id": 29888,
        "name": "FENGYUN 1C DEB",
        "group": "fengyun-1c-debris",
        "lat": -17.23562139862095,
        "lon": -9.231193449043852,
        "alt_km": 1011.2289433635997,
        "timestamp": "2025-12-07T03:52:32.768989+00:00",
        "meta_object_name": "FENGYUN 1C DEB",
        "meta_object_id": "1999-025GJ",
        "meta_epoch": "2025-12-06T11:44:37.559904",
        "meta_mean_motion": 14.19838149,
        "meta_eccentricity": 0.02752246,
        "meta_inclination": 99.192,
        "meta_ra_of_asc_node": 172.9496,
        "meta_arg_of_pericenter": 43.0944,
        "meta_mean_anomaly": 319.1424,
        "meta_ephemeris_type": 0,
        "meta_classification_type": "U",
        "meta_norad_cat_id": 29888,
        "meta_element_set_no": 999,
        "meta_rev_at_epoch": 97415,
        "meta_bstar": 0.00063742279,
        "meta_mean_motion_dot": 1.924e-05,
        "meta_mean_motion_ddot": 0,
        "tle_line1": "1 29888U 99025GJ  25340.48932361  .00001924  00000+0  63742-3 0  9990",
        "tle_line2": "2 29888  99.1920 172.9496 0275224  43.0944 319.1424 14.19838149974159"
      },
      "geometry": {
        "type": "Point",
        "coordinates": [
          -9.231193449043852,
          -17.23562139862095
        ]
      }
    },
    {
      "type": "Feature",
      "properties": {
        "norad_id": 29889,
        "name": "FENGYUN 1C DEB",
        "group": "fengyun-1c-debris",
        "lat": 44.53589424951828,
        "lon": 88.76392418915111,
        "alt_km": 733.1778768234462,
        "timestamp": "2025-12-07T03:52:32.769000+00:00",
        "meta_object_name": "FENGYUN 1C DEB",
        "meta_object_id": "1999-025GK",
        "meta_epoch": "2025-12-06T14:23:59.159328",
        "meta_mean_motion": 14.1350081,
        "meta_eccentricity": 0.01546285,
        "meta_inclination": 99.4767,
        "meta_ra_of_asc_node": 97.6285,
        "meta_arg_of_pericenter": 56.1062,
        "meta_mean_anomaly": 13.8825,
        "meta_ephemeris_type": 0,
        "meta_classification_type": "U",
        "meta_norad_cat_id": 29889,
        "meta_element_set_no": 999,
        "meta_rev_at_epoch": 97232,
        "meta_bstar": 0.00050227746,
        "meta_mean_motion_dot": 1.011e-05,
        "meta_mean_motion_ddot": 0,
        "tle_line1": "1 29889U 99025GK  25340.59999027  .00001011  00000+0  50228-3 0  9997",
        "tle_line2": "2 29889  99.4767  97.6285 0154628  56.1062  13.8825 14.13500810972326"
      },
      "geometry": {
        "type": "Point",
        "coordinates": [
          88.76392418915111,
          44.53589424951828
        ]
      }
    },
    {
      "type": "Feature",
      "properties": {
        "norad_id": 29890,
        "name": "FENGYUN 1C DEB",
        "group": "fengyun-1c-debris",
        "lat": 74.932332439874,
        "lon": 63.960072920699155,
        "alt_km": 797.4826921061494,
        "timestamp": "2025-12-07T03:52:32.769010+00:00",
        "meta_object_name": "FENGYUN 1C DEB",
        "meta_object_id": "1999-025GL",
        "meta_epoch": "2025-12-06T07:15:36.383616",
        "meta_mean_motion": 14.22999905,
        "meta_eccentricity": 0.00148966,
        "meta_inclination": 99.4684,
        "meta_ra_of_asc_node": 101.3449,
        "meta_arg_of_pericenter": 91.1042,
        "meta_mean_anomaly": 269.184,
        "meta_ephemeris_type": 0,
        "meta_classification_type": "U",
        "meta_norad_cat_id": 29890,
        "meta_element_set_no": 999,
        "meta_rev_at_epoch": 97359,
        "meta_bstar": 0.0016253668,
        "meta_mean_motion_dot": 3.616e-05,
        "meta_mean_motion_ddot": 0,
        "tle_line1": "1 29890U 99025GL  25340.30250444  .00003616  00000+0  16254-2 0  9994",
        "tle_line2": "2 29890  99.4684 101.3449 0014896  91.1042 269.1840 14.22999905973590"
      },
      "geometry": {
        "type": "Point",
        "coordinates": [
          63.960072920699155,
          74.932332439874
        ]
      }
    },
    {
      "type": "Feature",
      "properties": {
        "norad_id": 29891,
        "name": "FENGYUN 1C DEB",
        "group": "fengyun-1c-debris",
        "lat": 72.30035247235037,
        "lon": -167.68861717494192,
        "alt_km": 930.9724578695095,
        "timestamp": "2025-12-07T03:52:32.769021+00:00",
        "meta_object_name": "FENGYUN 1C DEB",
        "meta_object_id": "1999-025GM",
        "meta_epoch": "2025-12-06T14:13:34.692960",
        "meta_mean_motion": 13.99986739,
        "meta_eccentricity": 0.00614983,
        "meta_inclination": 98.726,
        "meta_ra_of_asc_node": 343.0021,
        "meta_arg_of_pericenter": 277.5989,
        "meta_mean_anomaly": 203.1679,
        "meta_ephemeris_type": 0,
        "meta_classification_type": "U",
        "meta_norad_cat_id": 29891,
        "meta_element_set_no": 999,
        "meta_rev_at_epoch": 96402,
        "meta_bstar": 0.00060716642,
        "meta_mean_motion_dot": 8.65e-06,
        "meta_mean_motion_ddot": 0,
        "tle_line1": "1 29891U 99025GM  25340.59276265  .00000865  00000+0  60717-3 0  9992",
        "tle_line2": "2 29891  98.7260 343.0021 0061498 277.5989 203.1679 13.99986739964024"
      },
      "geometry": {
        "type": "Point",
        "coordinates": [
          -167.68861717494192,
          72.30035247235037
        ]
      }
    },
    {
      "type": "Feature",
      "properties": {
        "norad_id": 29892,
        "name": "FENGYUN 1C DEB",
        "group": "fengyun-1c-debris",
        "lat": -48.691577810499034,
        "lon": -62.22837750174309,
        "alt_km": 774.9835647083846,
        "timestamp": "2025-12-07T03:52:32.769032+00:00",
        "meta_object_name": "FENGYUN 1C DEB",
        "meta_object_id": "1999-025GN",
        "meta_epoch": "2025-12-06T08:26:25.943424",
        "meta_mean_motion": 14.31994757,
        "meta_eccentricity": 0.019096,
        "meta_inclination": 99.1819,
        "meta_ra_of_asc_node": 127.5207,
        "meta_arg_of_pericenter": 315.8396,
        "meta_mean_anomaly": 63.432,
        "meta_ephemeris_type": 0,
        "meta_classification_type": "U",
        "meta_norad_cat_id": 29892,
        "meta_element_set_no": 999,
        "meta_rev_at_epoch": 96558,
        "meta_bstar": 0.005054073,
        "meta_mean_motion_dot": 0.00016566,
        "meta_mean_motion_ddot": 0,
        "tle_line1": "1 29892U 99025GN  25340.35168916  .00016566  00000+0  50541-2 0  9998",
        "tle_line2": "2 29892  99.1819 127.5207 0190960 315.8396  63.4320 14.31994757965584"
      },
      "geometry": {
        "type": "Point",
        "coordinates": [
          -62.22837750174309,
          -48.691577810499034
        ]
      }
    },
    {
      "type": "Feature",
      "properties": {
        "norad_id": 29893,
        "name": "FENGYUN 1C DEB",
        "group": "fengyun-1c-debris",
        "lat": -28.194827276861762,
        "lon": 82.38803252214532,
        "alt_km": 1093.2647294304634,
        "timestamp": "2025-12-07T03:52:32.769043+00:00",
        "meta_object_name": "FENGYUN 1C DEB",
        "meta_object_id": "1999-025GP",
        "meta_epoch": "2025-12-06T12:27:35.830944",
        "meta_mean_motion": 13.79456444,
        "meta_eccentricity": 0.01734578,
        "meta_inclination": 98.5537,
        "meta_ra_of_asc_node": 77.1797,
        "meta_arg_of_pericenter": 170.1982,
        "meta_mean_anomaly": 212.7012,
        "meta_ephemeris_type": 0,
        "meta_classification_type": "U",
        "meta_norad_cat_id": 29893,
        "meta_element_set_no": 999,
        "meta_rev_at_epoch": 95054,
        "meta_bstar": 0.00043184773,
        "meta_mean_motion_dot": 4.6e-06,
        "meta_mean_motion_ddot": 0,
        "tle_line1": "1 29893U 99025GP  25340.51916471  .00000460  00000+0  43185-3 0  9997",
        "tle_line2": "2 29893  98.5537  77.1797 0173457 170.1982 212.7012 13.79456444950548"
      },
      "geometry": {
        "type": "Point",
        "coordinates": [
          82.38803252214532,
          -28.194827276861762
        ]
      }
    }
  ]
}